{
  "type": "FeatureCollection",
  "features": [
    {
      "type": "Feature",
      "properties": {
        "norad_id": 66934,
        "name": "STARLINK-36153",
        "group": "last-30-days",
        "lat": -53.12450558226251,
        "lon": -88.99384388148293,
        "alt_km": 362.42900519744217,
        "timestamp": "2025-12-22T23:36:19.412432+00:00",
        "meta_object_name": "STARLINK-36153",
        "meta_object_id": "2025-286K",
        "meta_epoch": "2025-12-22T20:00:01.999008",
        "meta_mean_motion": 15.71325512,
        "meta_eccentricity": 0.0001084,
        "meta_inclination": 53.1594,
        "meta_ra_of_asc_node": 359.8639,
        "meta_arg_of_pericenter": 89.9891,
        "meta_mean_anomaly": 51.1681,
        "meta_ephemeris_type": 0,
        "meta_classification_type": "U",
        "meta_norad_cat_id": 66934,
        "meta_element_set_no": 999,
        "meta_rev_at_epoch": 361,
        "meta_bstar": -0.016805,
        "meta_mean_motion_dot": -0.01931208,
        "meta_mean_motion_ddot": 0,
        "tle_line1": "1 66934U 25286K   25356.83335647 -.01931208  00000+0 -16805-1 0  9997",
        "tle_line2": "2 66934  53.1594 359.8639 0001084  89.9891  51.1681 15.71325512  3611"
      },
      "geometry": {
        "type": "Point",
        "coordinates": [
          -88.99384388148293,
          -53.12450558226251
        ]
      }
    },
    {
      "type": "Feature",
      "properties": {
        "norad_id": 66935,
        "name": "STARLINK-36127",
        "group": "last-30-days",
        "lat": -53.03170682165606,
        "lon": -85.81904481565108,
        "alt_km": 362.4649481298584,
        "timestamp": "2025-12-22T23:36:19.412443+00:00",
        "meta_object_name": "STARLINK-36127",
        "meta_object_id": "2025-286L",
        "meta_epoch": "2025-12-22T20:00:01.999008",
        "meta_mean_motion": 15.7133321,
        "meta_eccentricity": 0.0001183,
        "meta_inclination": 53.1593,
        "meta_ra_of_asc_node": 359.8598,
        "meta_arg_of_pericenter": 81.006,
        "meta_mean_anomaly": 62.0662,
        "meta_ephemeris_type": 0,
        "meta_classification_type": "U",
        "meta_norad_cat_id": 66935,
        "meta_element_set_no": 999,
        "meta_rev_at_epoch": 361,
        "meta_bstar": -0.016914,
        "meta_mean_motion_dot": -0.01942852,
        "meta_mean_motion_ddot": 0,
        "tle_line1": "1 66935U 25286L   25356.83335647 -.01942852  00000+0 -16914-1 0  9996",
        "tle_line2": "2 66935  53.1593 359.8598 0001183  81.0060  62.0662 15.71333210  3610"
      },
      "geometry": {
        "type": "Point",
        "coordinates": [
          -85.81904481565108,
          -53.03170682165606
        ]
      }
    },
    {
      "type": "Feature",
      "properties": {
        "norad_id": 66936,
        "name": "STARLINK-36160",
        "group": "last-30-days",
        "lat": -52.8544041493515,
        "lon": -82.66142935637302,
        "alt_km": 362.38014939939603,
        "timestamp": "2025-12-22T23:36:19.412453+00:00",
        "meta_object_name": "STARLINK-36160",
        "meta_object_id": "2025-286M",
        "meta_epoch": "2025-12-22T20:00:01.999008",
        "meta_mean_motion": 15.71342086,
        "meta_eccentricity": 0.0001078,
        "meta_inclination": 53.1591,
        "meta_ra_of_asc_node": 359.8565,
        "meta_arg_of_pericenter": 84.4083,
        "meta_mean_anomaly": 60.5762,
        "meta_ephemeris_type": 0,
        "meta_classification_type": "U",
        "meta_norad_cat_id": 66936,
        "meta_element_set_no": 999,
        "meta_rev_at_epoch": 361,
        "meta_bstar": -0.017009,
        "meta_mean_motion_dot": -0.01953102,
        "meta_mean_motion_ddot": 0,
        "tle_line1": "1 66936U 25286M   25356.83335647 -.01953102  00000+0 -17009-1 0  9993",
        "tle_line2": "2 66936  53.1591 359.8565 0001078  84.4083  60.5762 15.71342086  3613"
      },
      "geometry": {
        "type": "Point",
        "coordinates": [
          -82.66142935637302,
          -52.8544041493515
        ]
      }
    },
    {
      "type": "Feature",
      "properties": {
        "norad_id": 66937,
        "name": "STARLINK-36165",
        "group": "last-30-days",
        "lat": -52.594653292358664,
        "lon": -79.54074023306099,
        "alt_km": 362.39597154216244,
        "timestamp": "2025-12-22T23:36:19.412469+00:00",
        "meta_object_name": "STARLINK-36165",
        "meta_object_id": "2025-286N",
        "meta_epoch": "2025-12-22T20:00:01.999008",
        "meta_mean_motion": 15.71336611,
        "meta_eccentricity": 0.0001128,
        "meta_inclination": 53.1592,
        "meta_ra_of_asc_node": 359.8521,
        "meta_arg_of_pericenter": 80.7809,
        "meta_mean_anomaly": 66.121,
        "meta_ephemeris_type": 0,
        "meta_classification_type": "U",
        "meta_norad_cat_id": 66937,
        "meta_element_set_no": 999,
        "meta_rev_at_epoch": 361,
        "meta_bstar": -0.016931,
        "meta_mean_motion_dot": -0.01944871,
        "meta_mean_motion_ddot": 0,
        "tle_line1": "1 66937U 25286N   25356.83335647 -.01944871  00000+0 -16931-1 0  9990",
        "tle_line2": "2 66937  53.1592 359.8521 0001128  80.7809  66.1210 15.71336611  3615"
      },
      "geometry": {
        "type": "Point",
        "coordinates": [
          -79.54074023306099,
          -52.594653292358664
        ]
      }
    },
    {
      "type": "Feature",
      "properties": {
        "norad_id": 66938,
        "name": "STARLINK-36155",
        "group": "last-30-days",
        "lat": -52.25283301850714,
        "lon": -76.45741086801445,
        "alt_km": 362.3175967990419,
        "timestamp": "2025-12-22T23:36:19.412479+00:00",
        "meta_object_name": "STARLINK-36155",
        "meta_object_id": "2025-286P",
        "meta_epoch": "2025-12-22T20:00:01.999008",
        "meta_mean_motion": 15.71334241,
        "meta_eccentricity": 0.0001004,
        "meta_inclination": 53.1591,
        "meta_ra_of_asc_node": 359.8474,
        "meta_arg_of_pericenter": 85.0592,
        "meta_mean_anomaly": 63.7603,
        "meta_ephemeris_type": 0,
        "meta_classification_type": "U",
        "meta_norad_cat_id": 66938,
        "meta_element_set_no": 999,
        "meta_rev_at_epoch": 361,
        "meta_bstar": -0.0169,
        "meta_mean_motion_dot": -0.0194137,
        "meta_mean_motion_ddot": 0,
        "tle_line1": "1 66938U 25286P   25356.83335647 -.01941370  00000+0 -16900-1 0  9998",
        "tle_line2": "2 66938  53.1591 359.8474 0001004  85.0592  63.7603 15.71334241  3618"
      },
      "geometry": {
        "type": "Point",
        "coordinates": [
          -76.45741086801445,
          -52.25283301850714
        ]
      }
    },
    {
      "type": "Feature",
      "properties": {
        "norad_id": 66939,
        "name": "STARLINK-36154",
        "group": "last-30-days",
        "lat": -51.33466639334687,
        "lon": -70.45874656852017,
        "alt_km": 362.3142565443459,
        "timestamp": "2025-12-22T23:36:19.412490+00:00",
        "meta_object_name": "STARLINK-36154",
        "meta_object_id": "2025-286Q",
        "meta_epoch": "2025-12-22T20:00:01.999008",
        "meta_mean_motion": 15.71340554,
        "meta_eccentricity": 0.0001077,
        "meta_inclination": 53.1589,
        "meta_ra_of_asc_node": 359.8396,
        "meta_arg_of_pericenter": 84.2878,
        "meta_mean_anomaly": 68.363,
        "meta_ephemeris_type": 0,
        "meta_classification_type": "U",
        "meta_norad_cat_id": 66939,
        "meta_element_set_no": 999,
        "meta_rev_at_epoch": 361,
        "meta_bstar": -0.016976,
        "meta_mean_motion_dot": -0.01949652,
        "meta_mean_motion_ddot": 0,
        "tle_line1": "1 66939U 25286Q   25356.83335647 -.01949652  00000+0 -16976-1 0  9993",
        "tle_line2": "2 66939  53.1589 359.8396 0001077  84.2878  68.3630 15.71340554  3612"
      },
      "geometry": {
        "type": "Point",
        "coordinates": [
          -70.45874656852017,
          -51.33466639334687
        ]
      }
    },
    {
      "type": "Feature",
      "properties": {
        "norad_id": 66940,
        "name": "STARLINK-36121",
        "group": "last-30-days",
        "lat": -50.76312271972674,
        "lon": -67.55488179336693,
        "alt_km": 362.36884501536406,
        "timestamp": "2025-12-22T23:36:19.412499+00:00",
        "meta_object_name": "STARLINK-36121",
        "meta_object_id": "2025-286R",
        "meta_epoch": "2025-12-22T20:00:01.999008",
        "meta_mean_motion": 15.7133765,
        "meta_eccentricity": 0.000114,
        "meta_inclination": 53.159,
        "meta_ra_of_asc_node": 359.8352,
        "meta_arg_of_pericenter": 92.7068,
        "meta_mean_anomaly": 61.8631,
        "meta_ephemeris_type": 0,
        "meta_classification_type": "U",
        "meta_norad_cat_id": 66940,
        "meta_element_set_no": 999,
        "meta_rev_at_epoch": 361,
        "meta_bstar": -0.016948,
        "meta_mean_motion_dot": -0.01946663,
        "meta_mean_motion_ddot": 0,
        "tle_line1": "1 66940U 25286R   25356.83335647 -.01946663  00000+0 -16948-1 0  9993",
        "tle_line2": "2 66940  53.1590 359.8352 0001140  92.7068  61.8631 15.71337650  3616"
      },
      "geometry": {
        "type": "Point",
        "coordinates": [
          -67.55488179336693,
          -50.76312271972674
        ]
      }
    }
  ]
}